[{"OBJECT_NAME":"FLOCK 4BE-26","OBJECT_ID":"2024-149S","EPOCH":"2026-03-09T22:48:38.352960","MEAN_MOTION":15.44367712,"ECCENTRICITY":0.00061541,"INCLINATION":97.3752,"RA_OF_ASC_NODE":151.807,"ARG_OF_PERICENTER":241.3498,"MEAN_ANOMALY":118.7132,"EPHEMERIS_TYPE":0,"CLASSIFICATION_TYPE":"U","NORAD_CAT_ID":60484,"ELEMENT_SET_NO":999,"REV_AT_EPOCH":8703,"BSTAR":0.002332528,"MEAN_MOTION_DOT":0.0010898,"MEAN_MOTION_DDOT":0},{"OBJECT_NAME":"CZ-4B DEB","OBJECT_ID":"2025-115B","EPOCH":"2026-03-09T18:01:12.826560","MEAN_MOTION":15.38891594,"ECCENTRICITY":0.00333367,"INCLINATION":97.487,"RA_OF_ASC_NODE":148.3212,"ARG_OF_PERICENTER":280.8109,"MEAN_ANOMALY":78.9385,"EPHEMERIS_TYPE":0,"CLASSIFICATION_TYPE":"U","NORAD_CAT_ID":64200,"ELEMENT_SET_NO":999,"REV_AT_EPOCH":4325,"BSTAR":0.0021921784,"MEAN_MOTION_DOT":0.00086722,"MEAN_MOTION_DDOT":0}]
